{
  "type": "FeatureCollection",
  "features": [
    {
      "type": "Feature",
      "properties": {
        "norad_id": 31311,
        "name": "FENGYUN 1C DEB",
        "group": "fengyun-1c-debris",
        "lat": 70.18219218610461,
        "lon": -89.28910368153018,
        "alt_km": 772.6154506333578,
        "timestamp": "2025-12-09T18:55:17.513480+00:00",
        "meta_object_name": "FENGYUN 1C DEB",
        "meta_object_id": "1999-025BPP",
        "meta_epoch": "2025-12-09T11:48:11.655648",
        "meta_mean_motion": 14.29701217,
        "meta_eccentricity": 0.00189482,
        "meta_inclination": 98.8526,
        "meta_ra_of_asc_node": 64.7855,
        "meta_arg_of_pericenter": 96.1945,
        "meta_mean_anomaly": 285.8328,
        "meta_ephemeris_type": 0,
        "meta_classification_type": "U",
        "meta_norad_cat_id": 31311,
        "meta_element_set_no": 999,
        "meta_rev_at_epoch": 96175,
        "meta_bstar": 0.0027207444,
        "meta_mean_motion_dot": 6.952e-05,
        "meta_mean_motion_ddot": 0,
        "tle_line1": "1 31311U 99025BPP 25343.49180157  .00006952  00000+0  27207-2 0  9997",
        "tle_line2": "2 31311  98.8526  64.7855 0018948  96.1945 285.8328 14.29701217961756"
      },
      "geometry": {
        "type": "Point",
        "coordinates": [
          -89.28910368153018,
          70.18219218610461
        ]
      }
    },
    {
      "type": "Feature",
      "properties": {
        "norad_id": 31312,
        "name": "FENGYUN 1C DEB",
        "group": "fengyun-1c-debris",
        "lat": -36.36224851693514,
        "lon": 142.95244645696462,
        "alt_km": 859.5556196317839,
        "timestamp": "2025-12-09T18:55:17.513490+00:00",
        "meta_object_name": "FENGYUN 1C DEB",
        "meta_object_id": "1999-025BPQ",
        "meta_epoch": "2025-12-01T11:40:09.596352",
        "meta_mean_motion": 14.00893121,
        "meta_eccentricity": 0.00581856,
        "meta_inclination": 98.8574,
        "meta_ra_of_asc_node": 321.4953,
        "meta_arg_of_pericenter": 267.9693,
        "meta_mean_anomaly": 222.3029,
        "meta_ephemeris_type": 0,
        "meta_classification_type": "U",
        "meta_norad_cat_id": 31312,
        "meta_element_set_no": 999,
        "meta_rev_at_epoch": 94988,
        "meta_bstar": 0.00061208287,
        "meta_mean_motion_dot": 8.85e-06,
        "meta_mean_motion_ddot": 0,
        "tle_line1": "1 31312U 99025BPQ 25335.48622218  .00000885  00000+0  61208-3 0  9996",
        "tle_line2": "2 31312  98.8574 321.4953 0058185 267.9693 222.3029 14.00893121949886"
      },
      "geometry": {
        "type": "Point",
        "coordinates": [
          142.95244645696462,
          -36.36224851693514
        ]
      }
    },
    {
      "type": "Feature",
      "properties": {
        "norad_id": 31313,
        "name": "FENGYUN 1C DEB",
        "group": "fengyun-1c-debris",
        "lat": 34.8843411887869,
        "lon": -118.7485009311846,
        "alt_km": 844.1133611408795,
        "timestamp": "2025-12-09T18:55:17.513500+00:00",
        "meta_object_name": "FENGYUN 1C DEB",
        "meta_object_id": "1999-025BPR",
        "meta_epoch": "2025-12-09T12:00:02.387232",
        "meta_mean_motion": 14.22267761,
        "meta_eccentricity": 0.00444693,
        "meta_inclination": 99.015,
        "meta_ra_of_asc_node": 247.3115,
        "meta_arg_of_pericenter": 190.5186,
        "meta_mean_anomaly": 169.5065,
        "meta_ephemeris_type": 0,
        "meta_classification_type": "U",
        "meta_norad_cat_id": 31313,
        "meta_element_set_no": 999,
        "meta_rev_at_epoch": 97016,
        "meta_bstar": 0.00050607139,
        "meta_mean_motion_dot": 1.089e-05,
        "meta_mean_motion_ddot": 0,
        "tle_line1": "1 31313U 99025BPR 25343.50002763  .00001089  00000+0  50607-3 0  9994",
        "tle_line2": "2 31313  99.0150 247.3115 0044469 190.5186 169.5065 14.22267761970160"
      },
      "geometry": {
        "type": "Point",
        "coordinates": [
          -118.7485009311846,
          34.8843411887869
        ]
      }
    },
    {
      "type": "Feature",
      "properties": {
        "norad_id": 31314,
        "name": "FENGYUN 1C DEB",
        "group": "fengyun-1c-debris",
        "lat": -81.008888501725,
        "lon": 78.92375817613014,
        "alt_km": 891.1137019021262,
        "timestamp": "2025-12-09T18:55:17.513510+00:00",
        "meta_object_name": "FENGYUN 1C DEB",
        "meta_object_id": "1999-025BPS",
        "meta_epoch": "2025-12-06T05:53:33.958752",
        "meta_mean_motion": 14.04913607,
        "meta_eccentricity": 0.00791603,
        "meta_inclination": 98.8218,
        "meta_ra_of_asc_node": 334.4356,
        "meta_arg_of_pericenter": 15.6231,
        "meta_mean_anomaly": 344.7353,
        "meta_ephemeris_type": 0,
        "meta_classification_type": "U",
        "meta_norad_cat_id": 31314,
        "meta_element_set_no": 999,
        "meta_rev_at_epoch": 60723,
        "meta_bstar": 0.00045752491,
        "meta_mean_motion_dot": 7.13e-06,
        "meta_mean_motion_ddot": 0,
        "tle_line1": "1 31314U 99025BPS 25340.24553193  .00000713  00000+0  45752-3 0  9999",
        "tle_line2": "2 31314  98.8218 334.4356 0079160  15.6231 344.7353 14.04913607607231"
      },
      "geometry": {
        "type": "Point",
        "coordinates": [
          78.92375817613014,
          -81.008888501725
        ]
      }
    },
    {
      "type": "Feature",
      "properties": {
        "norad_id": 31319,
        "name": "FENGYUN 1C DEB",
        "group": "fengyun-1c-debris",
        "lat": 77.27170737180003,
        "lon": -160.67532195591636,
        "alt_km": 849.4585327735222,
        "timestamp": "2025-12-09T18:55:17.513520+00:00",
        "meta_object_name": "FENGYUN 1C DEB",
        "meta_object_id": "1999-025BPX",
        "meta_epoch": "2025-12-09T12:24:10.390752",
        "meta_mean_motion": 13.75826621,
        "meta_eccentricity": 0.01706275,
        "meta_inclination": 98.8309,
        "meta_ra_of_asc_node": 242.5626,
        "meta_arg_of_pericenter": 95.4858,
        "meta_mean_anomaly": 81.2439,
        "meta_ephemeris_type": 0,
        "meta_classification_type": "U",
        "meta_norad_cat_id": 31319,
        "meta_element_set_no": 999,
        "meta_rev_at_epoch": 93643,
        "meta_bstar": 0.00026047465,
        "meta_mean_motion_dot": 2.42e-06,
        "meta_mean_motion_ddot": 0,
        "tle_line1": "1 31319U 99025BPX 25343.51678693  .00000242  00000+0  26047-3 0  9993",
        "tle_line2": "2 31319  98.8309 242.5626 0170627  95.4858  81.2439 13.75826621936438"
      },
      "geometry": {
        "type": "Point",
        "coordinates": [
          -160.67532195591636,
          77.27170737180003
        ]
      }
    },
    {
      "type": "Feature",
      "properties": {
        "norad_id": 31321,
        "name": "FENGYUN 1C DEB",
        "group": "fengyun-1c-debris",
        "lat": -29.450361627137397,
        "lon": 67.70528693510501,
        "alt_km": 869.3113889877577,
        "timestamp": "2025-12-09T18:55:17.513532+00:00",
        "meta_object_name": "FENGYUN 1C DEB",
        "meta_object_id": "1999-025BPZ",
        "meta_epoch": "2025-11-28T23:11:37.489632",
        "meta_mean_motion": 14.13809948,
        "meta_eccentricity": 0.00293651,
        "meta_inclination": 98.7348,
        "meta_ra_of_asc_node": 52.1537,
        "meta_arg_of_pericenter": 217.1862,
        "meta_mean_anomaly": 142.7277,
        "meta_ephemeris_type": 0,
        "meta_classification_type": "U",
        "meta_norad_cat_id": 31321,
        "meta_element_set_no": 999,
        "meta_rev_at_epoch": 57189,
        "meta_bstar": 0.00017233355,
        "meta_mean_motion_dot": 2.84e-06,
        "meta_mean_motion_ddot": 0,
        "tle_line1": "1 31321U 99025BPZ 25332.96640613  .00000284  00000+0  17233-3 0  9997",
        "tle_line2": "2 31321  98.7348  52.1537 0029365 217.1862 142.7277 14.13809948571893"
      },
      "geometry": {
        "type": "Point",
        "coordinates": [
          67.70528693510501,
          -29.450361627137397
        ]
      }
    },
    {
      "type": "Feature",
      "properties": {
        "norad_id": 31322,
        "name": "FENGYUN 1C DEB",
        "group": "fengyun-1c-debris",
        "lat": 78.28930085602966,
        "lon": 1.1669854515341946,
        "alt_km": 900.6966439841171,
        "timestamp": "2025-12-09T18:55:17.513543+00:00",
        "meta_object_name": "FENGYUN 1C DEB",
        "meta_object_id": "1999-025BQA",
        "meta_epoch": "2025-12-08T23:52:58.153728",
        "meta_mean_motion": 13.72994467,
        "meta_eccentricity": 0.0238726,
        "meta_inclination": 98.5739,
        "meta_ra_of_asc_node": 47.1579,
        "meta_arg_of_pericenter": 20.2617,
        "meta_mean_anomaly": 100.4309,
        "meta_ephemeris_type": 0,
        "meta_classification_type": "U",
        "meta_norad_cat_id": 31322,
        "meta_element_set_no": 999,
        "meta_rev_at_epoch": 62224,
        "meta_bstar": 0.00026306,
        "meta_mean_motion_dot": 2.61e-06,
        "meta_mean_motion_ddot": 0,
        "tle_line1": "1 31322U 99025BQA 25342.99511752  .00000261  00000+0  26306-3 0  9999",
        "tle_line2": "2 31322  98.5739  47.1579 0238726  20.2617 100.4309 13.72994467622248"
      },
      "geometry": {
        "type": "Point",
        "coordinates": [
          1.1669854515341946,
          78.28930085602966
        ]
      }
    }
  ]
}